IRIDIUM 171             
1 43929U 19002H   23286.84391067  .00000760  00000+0  26426-3 0  9993
2 43929  86.4009  42.2151 0002097 101.3249 258.8182 14.34214352248871
IRIDIUM 170             
1 43930U 19002J   23287.40121055  .00002825  00000+0  44404-3 0  9996
2 43930  86.6130  41.8397 0002120  92.1093 268.0367 14.72252962255549
IRIDIUM 167             
1 43931U 19002K   23286.83757526  .00000769  00000+0  26736-3 0  9994
2 43931  86.3999  42.0347 0002069  97.5478 262.5952 14.34217065248876
IRIDIUM 181             
1 56726U 23068S   23286.85497908  .00000384  00000+0  10750-3 0  9996
2 56726  86.8583  83.7805 0001658 127.8988 232.2364 14.43586780 21450
IRIDIUM 177             
1 56727U 23068T   23287.41157716  .00003328  00000+0  43458-3 0  9992
2 56727  86.1968  72.5081 0002185  82.1870 277.9599 14.80214390 21870
IRIDIUM 174             
1 56728U 23068U   23287.47374827  .00003992  00000+0  52199-3 0  9992
2 56728  86.1983  72.5626 0004613 114.3165 245.8538 14.80207899 21880
IRIDIUM 178             
1 56729U 23068V   23287.46825615  .00003630  00000+0  47434-3 0  9993
2 56729  86.5745  78.3378 0002483  85.3894 274.7611 14.80215282 21886
IRIDIUM 179             
1 56730U 23068W   23286.85444826  .00001626  00000+0  21064-3 0  9992
2 56730  86.6747  79.6206 0002368  89.5445 270.6048 14.80209987 21799
